{"type": "FeatureCollection", "features": [ {"type": "Feature", "properties": {"norad_id": 57401, "name": "TIANMU-1 09", "group": "weather", "lat": -36.97135348776731, "lon": 39.631790959741636, "alt_km": 490.8515423945091, "timestamp": "2025-12-10T21:43:21.729687+00:00", "meta": {"OBJECT_NAME": "TIANMU-1 09", "OBJECT_ID": "2023-101C", "EPOCH": "2025-12-10T14:01:39.002016", "MEAN_MOTION": 15.28031687, "ECCENTRICITY": 0.00068147, "INCLINATION": 97.2822, "RA_OF_ASC_NODE": 33.7945, "ARG_OF_PERICENTER": 89.6767, "MEAN_ANOMALY": 270.5254, "EPHEMERIS_TYPE": 0, "CLASSIFICATION_TYPE": "U", "NORAD_CAT_ID": 57401, "ELEMENT_SET_NO": 999, "REV_AT_EPOCH": 13282, "BSTAR": 0.00041566359, "MEAN_MOTION_DOT": 0.00011306, "MEAN_MOTION_DDOT": 0}, "tle": {"line1": "1 57401U 23101C   25344.58447919  .00011306  00000+0  41566-3 0  9994", "line2": "2 57401  97.2822  33.7945 0006814  89.6767 270.5254 15.28031687132824"}}, "geometry": {"type": "Point", "coordinates": [39.631790959741636, -36.97135348776731]}}, {"type": "Feature", "properties": {"norad_id": 57402, "name": "TIANMU-1 10", "group": "weather", "lat": 44.558080040704276, "lon": -137.80235647157795, "alt_km": 473.91974479916826, "timestamp": "2025-12-10T21:43:21.729697+00:00", "meta": {"OBJECT_NAME": "TIANMU-1 10", "OBJECT_ID": "2023-101D", "EPOCH": "2025-12-10T14:50:54.180960", "MEAN_MOTION": 15.28023925, "ECCENTRICITY": 0.00085647, "INCLINATION": 97.2903, "RA_OF_ASC_NODE": 34.6754, "ARG_OF_PERICENTER": 89.5568, "MEAN_ANOMALY": 270.6653, "EPHEMERIS_TYPE": 0, "CLASSIFICATION_TYPE": "U", "NORAD_CAT_ID": 57402, "ELEMENT_SET_NO": 999, "REV_AT_EPOCH": 13282, "BSTAR": 0.00043616579, "MEAN_MOTION_DOT": 0.00011869, "MEAN_MOTION_DDOT": 0}, "tle": {"line1": "1 57402U 23101D   25344.61868265  .00011869  00000+0  43617-3 0  9993", "line2": "2 57402  97.2903  34.6754 0008564  89.5568 270.6653 15.28023925132825"}}, "geometry": {"type": "Point", "coordinates": [-137.80235647157795, 44.558080040704276]}}, {"type": "Feature", "properties": {"norad_id": 57490, "name": "FENGYUN 3F", "group": "weather", "lat": 27.191739800716427, "lon": 48.711737988374566, "alt_km": 824.4077275729651, "timestamp": "2025-12-10T21:43:21.729708+00:00", "meta": {"OBJECT_NAME": "FENGYUN 3F", "OBJECT_ID": "2023-111A", "EPOCH": "2025-12-10T14:49:42.763584", "MEAN_MOTION": 14.19892807, "ECCENTRICITY": 6.586e-05, "INCLINATION": 98.7086, "RA_OF_ASC_NODE": 52.9455, "ARG_OF_PERICENTER": 97.9971, "MEAN_ANOMALY": 262.128, "EPHEMERIS_TYPE": 0, "CLASSIFICATION_TYPE": "U", "NORAD_CAT_ID": 57490, "ELEMENT_SET_NO": 999, "REV_AT_EPOCH": 12210, "BSTAR": 9.2226302e-05, "MEAN_MOTION_DOT": 1.52e-06, "MEAN_MOTION_DDOT": 0}, "tle": {"line1": "1 57490U 23111A   25344.61785606  .00000152  00000+0  92226-4 0  9992", "line2": "2 57490  98.7086  52.9455 0000658  97.9971 262.1280 14.19892807122102"}}, "geometry": {"type": "Point", "coordinates": [48.711737988374566, 27.191739800716427]}}, {"type": "Feature", "properties": {"norad_id": 58584, "name": "ARKTIKA-M 2", "group": "weather", "lat": 45.42903872813052, "lon": -154.07061831339382, "alt_km": 25634.621121718912, "timestamp": "2025-12-10T21:43:21.729720+00:00", "meta": {"OBJECT_NAME": "ARKTIKA-M 2", "OBJECT_ID": "2023-198A", "EPOCH": "2025-12-08T20:10:13.977120", "MEAN_MOTION": 2.0060476, "ECCENTRICITY": 0.68646991, "INCLINATION": 63.2247, "RA_OF_ASC_NODE": 175.3152, "ARG_OF_PERICENTER": 268.1185, "MEAN_ANOMALY": 18.8267, "EPHEMERIS_TYPE": 0, "CLASSIFICATION_TYPE": "U", "NORAD_CAT_ID": 58584, "ELEMENT_SET_NO": 999, "REV_AT_EPOCH": 1450, "BSTAR": 0, "MEAN_MOTION_DOT": 1.66e-06, "MEAN_MOTION_DDOT": 0}, "tle": {"line1": "1 58584U 23198A   25342.84043955  .00000166  00000+0  00000+0 0  9998", "line2": "2 58584  63.2247 175.3152 6864699 268.1185  18.8267  2.00604760 14506"}}, "geometry": {"type": "Point", "coordinates": [-154.07061831339382, 45.42903872813052]}}, {"type": "Feature", "properties": {"norad_id": 58645, "name": "TIANMU-1 11", "group": "weather", "lat": -23.046447582683182, "lon": 7.713106805523942, "alt_km": 492.3700621879807, "timestamp": "2025-12-10T21:43:21.729734+00:00", "meta": {"OBJECT_NAME": "TIANMU-1 11", "OBJECT_ID": "2023-205A", "EPOCH": "2025-12-10T12:22:22.438272", "MEAN_MOTION": 15.24555463, "ECCENTRICITY": 0.00080863, "INCLINATION": 97.361, "RA_OF_ASC_NODE": 4.1776, "ARG_OF_PERICENTER": 319.6142, "MEAN_ANOMALY": 40.4494, "EPHEMERIS_TYPE": 0, "CLASSIFICATION_TYPE": "U", "NORAD_CAT_ID": 58645, "ELEMENT_SET_NO": 999, "REV_AT_EPOCH": 10875, "BSTAR": 0.00036754829, "MEAN_MOTION_DOT": 8.991e-05, "MEAN_MOTION_DDOT": 0}, "tle": {"line1": "1 58645U 23205A   25344.51553748  .00008991  00000+0  36755-3 0  9991", "line2": "2 58645  97.3610   4.1776 0008086 319.6142  40.4494 15.24555463108755"}}, "geometry": {"type": "Point", "coordinates": [7.713106805523942, -23.046447582683182]}}, {"type": "Feature", "properties": {"norad_id": 58646, "name": "TIANMU-1 12", "group": "weather", "lat": -9.803318097474154, "lon": -176.91327611596586, "alt_km": 498.1469843669238, "timestamp": "2025-12-10T21:43:21.729745+00:00", "meta": {"OBJECT_NAME": "TIANMU-1 12", "OBJECT_ID": "2023-205B", "EPOCH": "2025-12-10T14:35:27.148704", "MEAN_MOTION": 15.24438461, "ECCENTRICITY": 0.00059808, "INCLINATION": 97.3598, "RA_OF_ASC_NODE": 4.0746, "ARG_OF_PERICENTER": 300.9682, "MEAN_ANOMALY": 59.0967, "EPHEMERIS_TYPE": 0, "CLASSIFICATION_TYPE": "U", "NORAD_CAT_ID": 58646, "ELEMENT_SET_NO": 999, "REV_AT_EPOCH": 10875, "BSTAR": 0.00041182856, "MEAN_MOTION_DOT": 0.00010045, "MEAN_MOTION_DDOT": 0}, "tle": {"line1": "1 58646U 23205B   25344.60795311  .00010045  00000+0  41183-3 0  9990", "line2": "2 58646  97.3598   4.0746 0005980 300.9682  59.0967 15.24438461108758"}}, "geometry": {"type": "Point", "coordinates": [-176.91327611596586, -9.803318097474154]}}, {"type": "Feature", "properties": {"norad_id": 58647, "name": "TIANMU-1 13", "group": "weather", "lat": 5.443057638086618, "lon": 3.8606150256396594, "alt_km": 494.6486492400436, "timestamp": "2025-12-10T21:43:21.729757+00:00", "meta": {"OBJECT_NAME": "TIANMU-1 13", "OBJECT_ID": "2023-205C", "EPOCH": "2025-12-10T13:49:19.644384", "MEAN_MOTION": 15.24480986, "ECCENTRICITY": 0.00060347, "INCLINATION": 97.3626, "RA_OF_ASC_NODE": 4.2431, "ARG_OF_PERICENTER": 277.2375, "MEAN_ANOMALY": 82.8177, "EPHEMERIS_TYPE": 0, "CLASSIFICATION_TYPE": "U", "NORAD_CAT_ID": 58647, "ELEMENT_SET_NO": 999, "REV_AT_EPOCH": 10874, "BSTAR": 0.0003852948, "MEAN_MOTION_DOT": 9.404e-05, "MEAN_MOTION_DDOT": 0}, "tle": {"line1": "1 58647U 23205C   25344.57592181  .00009404  00000+0  38529-3 0  9994", "line2": "2 58647  97.3626   4.2431 0006034 277.2375  82.8177 15.24480986108745"}}, "geometry": {"type": "Point", "coordinates": [3.8606150256396594, 5.443057638086618]}}, {"type": "Feature", "properties": {"norad_id": 58648, "name": "TIANMU-1 14", "group": "weather", "lat": 80.0522591399832, "lon": -128.6434875019993, "alt_km": 489.7163192503376, "timestamp": "2025-12-10T21:43:21.729768+00:00", "meta": {"OBJECT_NAME": "TIANMU-1 14", "OBJECT_ID": "2023-205D", "EPOCH": "2025-12-10T14:59:54.489408", "MEAN_MOTION": 15.24465152, "ECCENTRICITY": 0.00068837, "INCLINATION": 97.3558, "RA_OF_ASC_NODE": 3.642, "ARG_OF_PERICENTER": 282.1318, "MEAN_ANOMALY": 77.9149, "EPHEMERIS_TYPE": 0, "CLASSIFICATION_TYPE": "U", "NORAD_CAT_ID": 58648, "ELEMENT_SET_NO": 999, "REV_AT_EPOCH": 10875, "BSTAR": 0.00038973323, "MEAN_MOTION_DOT": 9.51e-05, "MEAN_MOTION_DDOT": 0}, "tle": {"line1": "1 58648U 23205D   25344.62493622  .00009510  00000+0  38973-3 0  9992", "line2": "2 58648  97.3558   3.6420 0006883 282.1318  77.9149 15.24465152108758"}}, "geometry": {"type": "Point", "coordinates": [-128.6434875019993, 80.0522591399832]}}, {"type": "Feature", "properties": {"norad_id": 58660, "name": "TIANMU-1 19", "group": "weather", "lat": -30.182546692618125, "lon": 100.3038320587278, "alt_km": 487.4146417284537, "timestamp": "2025-12-10T21:43:21.729778+00:00", "meta": {"OBJECT_NAME": "TIANMU-1 19", "OBJECT_ID": "2023-208A", "EPOCH": "2025-12-10T13:59:46.434048", "MEAN_MOTION": 15.27785326, "ECCENTRICITY": 0.000404, "INCLINATION": 97.4387, "RA_OF_ASC_NODE": 95.6245, "ARG_OF_PERICENTER": 262.8832, "MEAN_ANOMALY": 97.1948, "EPHEMERIS_TYPE": 0, "CLASSIFICATION_TYPE": "U", "NORAD_CAT_ID": 58660, "ELEMENT_SET_NO": 999, "REV_AT_EPOCH": 10849, "BSTAR": 0.00052330344, "MEAN_MOTION_DOT": 0.00014142, "MEAN_MOTION_DDOT": 0}, "tle": {"line1": "1 58660U 23208A   25344.58317632  .00014142  00000+0  52330-3 0  9990", "line2": "2 58660  97.4387  95.6245 0004040 262.8832  97.1948 15.27785326108491"}}, "geometry": {"type": "Point", "coordinates": [100.3038320587278, -30.182546692618125]}}, {"type": "Feature", "properties": {"norad_id": 58661, "name": "TIANMU-1 20", "group": "weather", "lat": 35.60892893333913, "lon": 91.0269771336835, "alt_km": 478.7910273757343, "timestamp": "2025-12-10T21:43:21.729789+00:00", "meta": {"OBJECT_NAME": "TIANMU-1 20", "OBJECT_ID": "2023-208B", "EPOCH": "2025-12-10T13:42:44.938080", "MEAN_MOTION": 15.28976136, "ECCENTRICITY": 0.00062899, "INCLINATION": 97.4325, "RA_OF_ASC_NODE": 96.0582, "ARG_OF_PERICENTER": 275.1822, "MEAN_ANOMALY": 84.87, "EPHEMERIS_TYPE": 0, "CLASSIFICATION_TYPE": "U", "NORAD_CAT_ID": 58661, "ELEMENT_SET_NO": 999, "REV_AT_EPOCH": 10856, "BSTAR": 0.00049246395, "MEAN_MOTION_DOT": 0.00013801, "MEAN_MOTION_DDOT": 0}, "tle": {"line1": "1 58661U 23208B   25344.57135345  .00013801  00000+0  49246-3 0  9992", "line2": "2 58661  97.4325  96.0582 0006289 275.1822  84.8700 15.28976136108565"}}, "geometry": {"type": "Point", "coordinates": [91.0269771336835, 35.60892893333913]}}]}